{"type":"FeatureCollection","features":[{"type":"Feature","properties":{"secteur":"CENTRE"},"geometry":{"type":"MultiPolygon","coordinates":[[[[2.28194,49.89344],[2.28244,49.8944],[2.28174,49.89452],[2.28139,49.89451],[2.28001,49.8941],[2.27786,49.8945],[2.27716,49.89469],[2.27594,49.89514],[2.2739,49.89603],[2.27289,49.89656],[2.27077,49.89729],[2.27147,49.89802],[2.27223,49.8985],[2.27235,49.89873],[2.27194,49.89885],[2.27161,49.89911],[2.27161,49.89941],[2.27173,49.89966],[2.27208,49.89988],[2.27262,49.89997],[2.27343,49.89981],[2.27431,49.89986],[2.28173,49.89937],[2.28296,49.89931],[2.28341,49.89935],[2.28351,49.89974],[2.28413,49.90132],[2.28413,49.90154],[2.28736,49.90044],[2.2907,49.8987],[2.29114,49.89877],[2.29165,49.89876],[2.29457,49.89818],[2.29531,49.89808],[2.29638,49.9019],[2.29825,49.90174],[2.30091,49.902],[2.30328,49.90124],[2.30377,49.90081],[2.30591,49.89861],[2.30641,49.89817],[2.30652,49.89785],[2.30698,49.8957],[2.30973,49.89519],[2.30504,49.88886],[2.30462,49.88856],[2.29494,49.88888],[2.29087,49.89027],[2.28597,49.893],[2.28544,49.89254],[2.28388,49.89308],[2.28194,49.89344]]]]}},{"type":"Feature","properties":{"secteur":"EST"},"geometry":{"type":"MultiPolygon","coordinates":[[[[2.31265,49.89581],[2.31349,49.89518],[2.31431,49.89489],[2.31472,49.89469],[2.31517,49.8946],[2.31589,49.89457],[2.316,49.89479],[2.31612,49.89485],[2.31696,49.89487],[2.31787,49.89506],[2.31837,49.89501],[2.3189,49.89505],[2.31944,49.89498],[2.31984,49.89482],[2.32008,49.89481],[2.32143,49.89447],[2.32167,49.89444],[2.32169,49.89451],[2.32227,49.89446],[2.32223,49.89425],[2.32248,49.89415],[2.32259,49.89411],[2.32257,49.89418],[2.32316,49.89419],[2.32331,49.89407],[2.32352,49.89399],[2.32342,49.89367],[2.32616,49.89323],[2.32896,49.8919],[2.33003,49.89151],[2.3306,49.89123],[2.33213,49.89097],[2.33438,49.89095],[2.3346,49.89089],[2.33503,49.89061],[2.33522,49.89041],[2.33542,49.89006],[2.33571,49.88908],[2.33572,49.88859],[2.33551,49.88782],[2.33552,49.88768],[2.3356,49.88753],[2.33634,49.88698],[2.33662,49.8867],[2.33768,49.88541],[2.33799,49.88511],[2.33899,49.88436],[2.3398,49.88366],[2.34007,49.88329],[2.34089,49.88272],[2.34108,49.88248],[2.34132,49.88195],[2.34137,49.88183],[2.34002,49.88141],[2.33941,49.88117],[2.33934,49.88097],[2.33936,49.88085],[2.33951,49.88074],[2.33981,49.88064],[2.33997,49.88062],[2.34028,49.88068],[2.34108,49.88052],[2.34176,49.88047],[2.34233,49.88027],[2.34271,49.88032],[2.34286,49.88041],[2.34325,49.88025],[2.34325,49.88014],[2.34477,49.87766],[2.34481,49.8774],[2.34456,49.87692],[2.34292,49.87547],[2.34254,49.87487],[2.3424,49.87448],[2.34242,49.87364],[2.34219,49.87277],[2.34195,49.87237],[2.34133,49.87155],[2.34121,49.87121],[2.3413,49.87105],[2.34158,49.87084],[2.34197,49.8703],[2.3424,49.86987],[2.34248,49.86944],[2.34243,49.86913],[2.34253,49.86892],[2.34396,49.86873],[2.34416,49.86861],[2.34444,49.86807],[2.34446,49.8677],[2.34456,49.86752],[2.34539,49.86679],[2.34573,49.86632],[2.3458,49.86601],[2.34194,49.86412],[2.3412,49.8648],[2.33924,49.86367],[2.33943,49.86348],[2.33937,49.86346],[2.33851,49.86326],[2.33843,49.86332],[2.33744,49.86286],[2.33614,49.86245],[2.33486,49.86229],[2.3341,49.86212],[2.33268,49.86147],[2.33025,49.86085],[2.32854,49.86029],[2.32803,49.86016],[2.32652,49.85994],[2.32695,49.85906],[2.32675,49.85889],[2.32659,49.85862],[2.32639,49.85868],[2.32638,49.85898],[2.3262,49.85954],[2.32606,49.85985],[2.32594,49.85991],[2.32583,49.8601],[2.32543,49.86095],[2.32493,49.86228],[2.32419,49.8639],[2.32415,49.86408],[2.32367,49.86481],[2.32327,49.86594],[2.32265,49.86735],[2.32267,49.86748],[2.32216,49.86828],[2.32191,49.86845],[2.32179,49.86878],[2.32232,49.86911],[2.32257,49.86945],[2.32158,49.86979],[2.32086,49.87022],[2.32061,49.87045],[2.3185,49.8733],[2.31773,49.87426],[2.3174,49.87452],[2.31688,49.87478],[2.31641,49.87492],[2.31522,49.87513],[2.31442,49.87544],[2.31374,49.87596],[2.31322,49.87649],[2.31275,49.87712],[2.3124,49.87775],[2.31188,49.87909],[2.31111,49.88038],[2.30522,49.87887],[2.30389,49.88501],[2.30304,49.88861],[2.30462,49.88856],[2.30504,49.88886],[2.31053,49.89627],[2.31244,49.8958],[2.31265,49.89581]]]]}},{"type":"Feature","properties":{"secteur":"NORD"},"geometry":{"type":"MultiPolygon","coordinates":[[[[2.31265,49.89581],[2.31244,49.8958],[2.31053,49.89627],[2.30973,49.89519],[2.30698,49.8957],[2.30652,49.89785],[2.30641,49.89817],[2.30591,49.89861],[2.30377,49.90081],[2.30328,49.90124],[2.30091,49.902],[2.29963,49.90187],[2.29968,49.90206],[2.29854,49.90193],[2.29787,49.90198],[2.29793,49.90219],[2.29758,49.90252],[2.29637,49.90231],[2.29486,49.90387],[2.29423,49.90444],[2.29288,49.9058],[2.2913,49.90651],[2.29013,49.9071],[2.29012,49.9072],[2.29033,49.90747],[2.29142,49.90833],[2.29147,49.90843],[2.29132,49.90857],[2.29095,49.90875],[2.28854,49.91087],[2.28804,49.91156],[2.28771,49.91216],[2.2879,49.91264],[2.28789,49.91286],[2.28782,49.91297],[2.28737,49.91344],[2.28636,49.91427],[2.28329,49.91698],[2.28751,49.91841],[2.29128,49.92004],[2.29025,49.92151],[2.28956,49.92183],[2.2837,49.92372],[2.28263,49.92395],[2.28093,49.92413],[2.27814,49.92455],[2.275,49.92521],[2.27113,49.92616],[2.26855,49.92691],[2.26683,49.92745],[2.26432,49.92838],[2.25561,49.93172],[2.25705,49.93274],[2.2598,49.93401],[2.26291,49.93563],[2.2657,49.93749],[2.26497,49.93788],[2.26471,49.93797],[2.26436,49.93825],[2.26383,49.93834],[2.26321,49.93879],[2.261,49.93998],[2.26661,49.94256],[2.26472,49.94477],[2.26474,49.9448],[2.27637,49.95058],[2.27694,49.94805],[2.2772,49.9459],[2.27743,49.94523],[2.27795,49.94432],[2.27876,49.94318],[2.27953,49.94177],[2.28022,49.9408],[2.28235,49.9418],[2.28611,49.94315],[2.28853,49.94389],[2.28961,49.94185],[2.29,49.94093],[2.29278,49.94003],[2.29422,49.93972],[2.29392,49.93881],[2.29422,49.93886],[2.29567,49.9387],[2.29567,49.9375],[2.29583,49.93713],[2.29637,49.93536],[2.29656,49.93401],[2.29693,49.93329],[2.2976,49.93254],[2.29776,49.93245],[2.29824,49.93221],[2.29973,49.93174],[2.30067,49.93138],[2.30039,49.93083],[2.30001,49.92986],[2.2995,49.92888],[2.29934,49.92836],[2.30123,49.92887],[2.30169,49.92892],[2.30362,49.92896],[2.30383,49.92896],[2.30389,49.92844],[2.31141,49.92934],[2.31483,49.92993],[2.31712,49.93001],[2.31707,49.93062],[2.3225,49.9308],[2.32608,49.93538],[2.32617,49.93536],[2.32641,49.93542],[2.33284,49.9339],[2.33043,49.93083],[2.33382,49.93075],[2.33433,49.92999],[2.33706,49.92881],[2.33924,49.92862],[2.33994,49.92844],[2.33791,49.92716],[2.33562,49.92591],[2.33228,49.92383],[2.33233,49.92378],[2.33173,49.92327],[2.33165,49.92298],[2.33147,49.92271],[2.33353,49.92174],[2.33323,49.9214],[2.33409,49.92094],[2.33257,49.91931],[2.33506,49.91853],[2.33477,49.91817],[2.33418,49.91832],[2.33268,49.91396],[2.3336,49.91382],[2.33363,49.91352],[2.33226,49.91358],[2.3322,49.91296],[2.33281,49.91292],[2.33286,49.91215],[2.33334,49.91216],[2.33345,49.91098],[2.32084,49.90752],[2.32132,49.90573],[2.32088,49.90571],[2.3206,49.90513],[2.32051,49.90513],[2.32042,49.90485],[2.31998,49.90425],[2.32016,49.90424],[2.31947,49.90279],[2.31893,49.90285],[2.31849,49.90102],[2.32076,49.90071],[2.32018,49.89935],[2.32011,49.89927],[2.31977,49.89919],[2.31944,49.89898],[2.31735,49.89884],[2.31621,49.8973],[2.31543,49.8963],[2.31522,49.8961],[2.31517,49.89612],[2.31503,49.89641],[2.31451,49.89664],[2.31413,49.89689],[2.31367,49.89736],[2.31353,49.8974],[2.31323,49.89729],[2.31318,49.89719],[2.31331,49.89699],[2.31313,49.89679],[2.31297,49.8967],[2.3127,49.89673],[2.31228,49.89637],[2.31229,49.89631],[2.31239,49.89626],[2.31256,49.89606],[2.31265,49.89581]]]]}},{"type":"Feature","properties":{"secteur":"OUEST"},"geometry":{"type":"MultiPolygon","coordinates":[[[[2.25736,49.8829],[2.25679,49.88314],[2.25553,49.88201],[2.25417,49.88039],[2.25381,49.88021],[2.25342,49.88062],[2.25333,49.88082],[2.25343,49.88106],[2.25392,49.88164],[2.25422,49.8823],[2.25441,49.88256],[2.25443,49.88271],[2.25436,49.88314],[2.2544,49.88338],[2.25449,49.88349],[2.25474,49.88365],[2.25517,49.88421],[2.25559,49.88455],[2.25557,49.88464],[2.25533,49.88488],[2.25439,49.88541],[2.25433,49.88554],[2.25437,49.88569],[2.25446,49.88579],[2.25473,49.88593],[2.25662,49.88637],[2.25667,49.88641],[2.25671,49.88685],[2.25706,49.88708],[2.25345,49.89001],[2.25041,49.89185],[2.25057,49.89195],[2.25054,49.89198],[2.24935,49.89263],[2.24768,49.8914],[2.24533,49.89272],[2.23433,49.89294],[2.23107,49.89525],[2.2306,49.89527],[2.22956,49.89566],[2.22923,49.89589],[2.22933,49.897],[2.22917,49.89745],[2.22883,49.89784],[2.22869,49.89814],[2.22864,49.89826],[2.22869,49.89851],[2.22775,49.8986],[2.22651,49.89979],[2.22684,49.89976],[2.22712,49.9004],[2.22659,49.90042],[2.22357,49.90261],[2.22448,49.90348],[2.22472,49.90389],[2.22686,49.90601],[2.22693,49.90603],[2.22734,49.9068],[2.22802,49.90762],[2.22926,49.90992],[2.22984,49.91085],[2.23053,49.91073],[2.23164,49.9107],[2.23283,49.91099],[2.23426,49.91154],[2.23577,49.91103],[2.23604,49.91146],[2.23563,49.91157],[2.23581,49.91183],[2.23439,49.91221],[2.23542,49.91341],[2.23739,49.91291],[2.23744,49.91291],[2.23734,49.91298],[2.2374,49.91307],[2.2384,49.91279],[2.24004,49.9145],[2.24064,49.91495],[2.23951,49.91527],[2.23939,49.91555],[2.23886,49.91601],[2.23785,49.91703],[2.23771,49.91733],[2.23824,49.91733],[2.23859,49.91738],[2.23972,49.91775],[2.23994,49.91792],[2.24038,49.91856],[2.24063,49.9187],[2.24094,49.91877],[2.24131,49.91876],[2.24272,49.91836],[2.24436,49.91802],[2.24504,49.91798],[2.2457,49.91803],[2.24803,49.91844],[2.2501,49.91852],[2.25105,49.91864],[2.25268,49.91875],[2.2532,49.91867],[2.25569,49.91888],[2.25626,49.91881],[2.25631,49.91911],[2.25593,49.91924],[2.2555,49.91932],[2.25332,49.91996],[2.25307,49.92009],[2.24999,49.92117],[2.24912,49.9212],[2.24806,49.92162],[2.24811,49.92171],[2.24775,49.92186],[2.2476,49.92175],[2.24631,49.92224],[2.24431,49.92274],[2.24436,49.92284],[2.24255,49.92327],[2.24397,49.92512],[2.24505,49.92477],[2.24549,49.92468],[2.24568,49.92482],[2.24625,49.92592],[2.24586,49.92649],[2.24667,49.92741],[2.2485,49.92728],[2.24979,49.92712],[2.25119,49.92677],[2.25423,49.93023],[2.25561,49.93172],[2.26432,49.92838],[2.26683,49.92745],[2.26855,49.92691],[2.27113,49.92616],[2.275,49.92521],[2.27814,49.92455],[2.28093,49.92413],[2.28263,49.92395],[2.2837,49.92372],[2.28956,49.92183],[2.29025,49.92151],[2.29128,49.92004],[2.28751,49.91841],[2.28329,49.91698],[2.28636,49.91427],[2.28737,49.91344],[2.28782,49.91297],[2.28789,49.91286],[2.2879,49.91264],[2.28771,49.91216],[2.28804,49.91156],[2.28854,49.91087],[2.29095,49.90875],[2.29132,49.90857],[2.29147,49.90843],[2.29142,49.90833],[2.29033,49.90747],[2.29012,49.9072],[2.29013,49.9071],[2.2913,49.90651],[2.29288,49.9058],[2.29423,49.90444],[2.29486,49.90387],[2.29637,49.90231],[2.29758,49.90252],[2.29793,49.90219],[2.29787,49.90198],[2.29854,49.90193],[2.29968,49.90206],[2.29963,49.90187],[2.29825,49.90174],[2.29638,49.9019],[2.29531,49.89808],[2.29457,49.89818],[2.29165,49.89876],[2.29114,49.89877],[2.2907,49.8987],[2.28736,49.90044],[2.28413,49.90154],[2.28413,49.90132],[2.28351,49.89974],[2.28341,49.89935],[2.28321,49.89932],[2.28173,49.89937],[2.27431,49.89986],[2.27343,49.89981],[2.27262,49.89997],[2.27208,49.89988],[2.27173,49.89966],[2.27161,49.89941],[2.27161,49.89911],[2.27194,49.89885],[2.27235,49.89873],[2.27223,49.8985],[2.27147,49.89802],[2.27077,49.89729],[2.27289,49.89656],[2.2739,49.89603],[2.27594,49.89514],[2.27716,49.89469],[2.27786,49.8945],[2.28001,49.8941],[2.28139,49.89451],[2.28174,49.89452],[2.28244,49.8944],[2.28194,49.89344],[2.28071,49.89352],[2.27972,49.89348],[2.27869,49.89331],[2.27788,49.89305],[2.26743,49.88865],[2.26186,49.88612],[2.2602,49.88524],[2.25838,49.88384],[2.25736,49.8829]]]]}},{"type":"Feature","properties":{"secteur":"SUD"},"geometry":{"type":"MultiPolygon","coordinates":[[[[2.30339,49.88713],[2.30522,49.87887],[2.31111,49.88038],[2.31188,49.87909],[2.3124,49.87775],[2.31275,49.87712],[2.31322,49.87649],[2.31374,49.87596],[2.31442,49.87544],[2.31503,49.87519],[2.31566,49.87503],[2.31641,49.87492],[2.31688,49.87478],[2.3174,49.87452],[2.31773,49.87426],[2.3185,49.8733],[2.32061,49.87045],[2.32086,49.87022],[2.32158,49.86979],[2.32257,49.86945],[2.32232,49.86911],[2.32179,49.86878],[2.32191,49.86845],[2.32216,49.86828],[2.32267,49.86748],[2.32265,49.86735],[2.32327,49.86594],[2.32367,49.86481],[2.32415,49.86408],[2.32419,49.8639],[2.32493,49.86228],[2.32543,49.86095],[2.32583,49.8601],[2.32594,49.85991],[2.32606,49.85985],[2.3262,49.85954],[2.32638,49.85898],[2.32639,49.85868],[2.3262,49.85761],[2.32589,49.85753],[2.32584,49.85744],[2.32568,49.85701],[2.3256,49.8564],[2.32546,49.8564],[2.32539,49.85612],[2.3251,49.85547],[2.32444,49.85465],[2.32405,49.85426],[2.32317,49.85371],[2.32298,49.85341],[2.32281,49.85251],[2.32237,49.85151],[2.32197,49.85081],[2.32128,49.8498],[2.32116,49.8494],[2.32088,49.84937],[2.32116,49.8481],[2.32114,49.84791],[2.32078,49.84746],[2.3199,49.84684],[2.31886,49.84791],[2.319,49.84798],[2.3187,49.84817],[2.31601,49.84919],[2.3125,49.85137],[2.31224,49.85247],[2.3162,49.85318],[2.316,49.85367],[2.31591,49.85367],[2.31356,49.85327],[2.31204,49.85312],[2.31248,49.85656],[2.3127,49.85732],[2.31273,49.85766],[2.31255,49.85805],[2.3136,49.85841],[2.31476,49.85897],[2.31574,49.85934],[2.31346,49.86295],[2.31282,49.86354],[2.31372,49.86521],[2.30955,49.86633],[2.30879,49.86651],[2.30834,49.86655],[2.30866,49.86456],[2.30945,49.86113],[2.30975,49.86037],[2.31029,49.85972],[2.30665,49.85936],[2.30437,49.85942],[2.30114,49.85989],[2.30135,49.86081],[2.29804,49.86112],[2.29822,49.86207],[2.2958,49.86241],[2.29709,49.86337],[2.29963,49.86451],[2.30147,49.86571],[2.30274,49.86676],[2.30444,49.8676],[2.30434,49.86925],[2.30032,49.86918],[2.30084,49.87119],[2.29888,49.87149],[2.29767,49.86832],[2.29682,49.86739],[2.29577,49.86677],[2.29304,49.86609],[2.29178,49.86595],[2.29056,49.86552],[2.28868,49.86576],[2.287,49.86589],[2.28696,49.86465],[2.28687,49.86359],[2.28568,49.8636],[2.28376,49.86352],[2.2838,49.86399],[2.28272,49.86405],[2.28305,49.8659],[2.27833,49.86695],[2.28189,49.8755],[2.27712,49.87509],[2.27555,49.87491],[2.26774,49.87446],[2.26677,49.8745],[2.26566,49.87472],[2.26518,49.87475],[2.26461,49.87475],[2.26358,49.87459],[2.25963,49.87449],[2.25678,49.87179],[2.25733,49.87164],[2.25707,49.87152],[2.25698,49.87137],[2.25542,49.87064],[2.25153,49.86847],[2.24804,49.86993],[2.2483,49.87047],[2.24859,49.8714],[2.24929,49.87235],[2.24952,49.87309],[2.2515,49.87258],[2.25278,49.87466],[2.25366,49.87471],[2.2544,49.87578],[2.25566,49.87643],[2.25558,49.87651],[2.25554,49.87667],[2.2556,49.87681],[2.25572,49.87691],[2.25598,49.877],[2.25633,49.87697],[2.25656,49.87684],[2.25664,49.87668],[2.26054,49.87685],[2.26111,49.87692],[2.25773,49.87796],[2.25898,49.87944],[2.2574,49.88053],[2.25983,49.88171],[2.25936,49.88193],[2.25898,49.88196],[2.25802,49.88229],[2.25759,49.88268],[2.2575,49.88285],[2.25736,49.8829],[2.25838,49.88384],[2.2602,49.88524],[2.26186,49.88612],[2.26743,49.88865],[2.27717,49.89278],[2.27869,49.89331],[2.27972,49.89348],[2.28071,49.89352],[2.28194,49.89344],[2.28388,49.89308],[2.28544,49.89254],[2.28597,49.893],[2.29087,49.89027],[2.29494,49.88888],[2.30304,49.88861],[2.30339,49.88713]]]]}}]}